     2.100          NAVIGATION                              RINEX VERSION / TYPE
fic2rin                                 04/12/2014 00:19:42 PGM / RUN BY / DATE
                                                            END OF HEADER
29 14  4 11  8  0  0.0  .524661503732D-03  .261479726760D-11  .000000000000D+00
     .910000000000D+02 -.334062500000D+02  .479805700119D-08  .228858152088D+01
    -.194460153580D-05  .167293322738D-02  .433810055256D-05  .515372102356D+04
     .460800000000D+06  .614672899246D-07 -.182079454073D+01  .242143869400D-07
     .968605004755D+00  .301656250000D+03 -.926826551372D+00 -.833391856973D-08
    -.725030200418D-10  .100000000000D+01  .178700000000D+04  .000000000000D+00
     .340000000000D+01  .000000000000D+00 -.931322574615D-08  .910000000000D+02
     .453606000000D+06  .400000000000D+01
32 14  4 11  8  0  0.0 -.451675150543D-03  .761701812735D-11  .000000000000D+00
     .930000000000D+02  .665625000000D+02  .477948479901D-08 -.268719548759D+01
     .328384339809D-05  .114310156787D-01  .837258994579D-05  .515376708221D+04
     .460800000000D+06 -.286847352982D-06  .307231407890D+00  .204890966415D-07
     .948340774703D+00  .209312500000D+03 -.172254978723D+00 -.807997942072D-08
     .219652006531D-09  .100000000000D+01  .178700000000D+04  .000000000000D+00
     .240000000000D+01  .000000000000D+00 -.325962901115D-08  .930000000000D+02
     .453606000000D+06  .400000000000D+01
29 14  4 11  7 59 44.0  .524659641087D-03  .261479726760D-11  .000000000000D+00
     .000000000000D+00 -.334062500000D+02  .479805700119D-08  .228624721711D+01
    -.194460153580D-05  .167293369304D-02  .433810055256D-05  .515372101402D+04
     .460784000000D+06  .614672899246D-07 -.182079440906D+01  .242143869400D-07
     .968605009144D+00  .301656250000D+03 -.926825833079D+00 -.833391856973D-08
    -.725030200418D-10  .100000000000D+01  .178700000000D+04  .000000000000D+00
     .240000000000D+01  .000000000000D+00 -.931322574615D-08  .000000000000D+00
     .457356000000D+06  .400000000000D+01
19 14  4 11  7 59 44.0 -.450322404504D-03 -.227373675443D-11  .000000000000D+00
     .110000000000D+02 -.381875000000D+02  .482270088485D-08 -.131888939829D+01
    -.209361314774D-05  .101661516819D-01  .384263694286D-05  .515359374237D+04
     .460784000000D+06  .169500708580D-06 -.177883390430D+01 -.163912773132D-06
     .965004080179D+00  .302812500000D+03  .412790033493D+00 -.829927426951D-08
     .385730352932D-10  .100000000000D+01  .178700000000D+04  .000000000000D+00
     .240000000000D+01  .000000000000D+00 -.149011611938D-07  .110000000000D+02
     .457956000000D+06  .400000000000D+01
10 14  4 11  7 59 44.0 -.121274497360D-03 -.136424205266D-11  .000000000000D+00
     .140000000000D+02  .619687500000D+02  .513592821774D-08  .551579966788D+00
     .352784991264D-05  .135010719532D-01  .825896859169D-05  .515372347450D+04
     .460784000000D+06 -.115483999252D-06  .235975323445D+00  .171363353729D-06
     .942674945647D+00  .210343750000D+03  .861152542460D+00 -.855142762986D-08
     .118933525487D-09  .100000000000D+01  .178700000000D+04  .000000000000D+00
     .240000000000D+01  .000000000000D+00 -.279396772385D-08  .140000000000D+02
     .459636000000D+06  .400000000000D+01
21 14  4 11  7 59 44.0 -.354662071913D-03 -.227373675443D-11  .000000000000D+00
     .100000000000D+01 -.687500000000D+02  .508628329269D-08  .206391935402D+01
    -.380352139473D-05  .213771058479D-01  .111348927021D-04  .515378227234D+04
     .460784000000D+06 -.726431608200D-07 -.830952262051D+00 -.514090061188D-06
     .932254942972D+00  .151375000000D+03 -.203995262460D+01 -.812212403335D-08
    -.202151277555D-09  .100000000000D+01  .178700000000D+04  .000000000000D+00
     .240000000000D+01  .000000000000D+00 -.111758708954D-07  .100000000000D+01
     .459906000000D+06  .400000000000D+01
10 14  4 11  9 59 44.0 -.121283810586D-03 -.136424205266D-11  .000000000000D+00
     .520000000000D+02  .574687500000D+02  .510342686393D-08  .160164943440D+01
     .299885869026D-05  .135019188747D-01  .896491110325D-05  .515372614670D+04
     .467984000000D+06 -.385567545891D-06  .235913107002D+00  .409781932831D-07
     .942676429046D+00  .200875000000D+03  .861237409264D+00 -.840963600938D-08
     .263225250103D-09  .100000000000D+01  .178700000000D+04  .000000000000D+00
     .240000000000D+01  .000000000000D+00 -.279396772385D-08  .520000000000D+02
     .460806000000D+06  .400000000000D+01
19 14  4 11  9 59 44.0 -.450339168310D-03 -.227373675443D-11  .000000000000D+00
     .120000000000D+02 -.375937500000D+02  .487948896459D-08 -.268661871165D+00
    -.181421637535D-05  .101661873050D-01  .401772558689D-05  .515359371376D+04
     .467984000000D+06  .126659870148D-06 -.177889388687D+01  .104308128357D-06
     .965002969824D+00  .303500000000D+03  .412794378360D+00 -.854071289783D-08
    -.582167106740D-10  .100000000000D+01  .178700000000D+04  .000000000000D+00
     .240000000000D+01  .000000000000D+00 -.149011611938D-07  .120000000000D+02
     .460806000000D+06  .400000000000D+01
21 14  4 11  9 59 44.0 -.354678370059D-03 -.227373675443D-11  .000000000000D+00
     .900000000000D+01 -.569687500000D+02  .498699344258D-08  .311402750850D+01
    -.315159559250D-05  .213757742895D-01  .110305845737D-04  .515378453636D+04
     .467984000000D+06  .197440385818D-06 -.831009476777D+00 -.329688191414D-06
     .932254031574D+00  .148406250000D+03 -.203994279818D+01 -.795604568695D-08
    -.206794328100D-09  .100000000000D+01  .178700000000D+04  .000000000000D+00
     .240000000000D+01  .000000000000D+00 -.111758708954D-07  .900000000000D+01
     .460806000000D+06  .400000000000D+01
29 14  4 11  9 59 44.0  .524678733200D-03  .261479726760D-11  .000000000000D+00
     .100000000000D+01 -.315937500000D+02  .467626621383D-08 -.294696128515D+01
    -.165589153767D-05  .167278642766D-02  .419840216637D-05  .515372145462D+04
     .467984000000D+06 -.428408384323D-07 -.182085480271D+01  .800937414169D-07
     .968604909665D+00  .298250000000D+03 -.926649233997D+00 -.829284543030D-08
     .192865176466D-10  .100000000000D+01  .178700000000D+04  .000000000000D+00
     .240000000000D+01  .000000000000D+00 -.931322574615D-08  .100000000000D+01
     .460806000000D+06  .400000000000D+01
 1 14  4 11 10  0  0.0  .810949131846D-05  .159161572810D-11  .000000000000D+00
     .920000000000D+02 -.542812500000D+02  .450733060555D-08 -.161664500156D+01
    -.289641320705D-05  .289693300147D-02  .105854123831D-04  .515368487167D+04
     .468000000000D+06  .186264514923D-07 -.820099975862D+00 -.577419996262D-07
     .960800193436D+00  .175218750000D+03  .318593322074D+00 -.796533178804D-08
    -.152149194768D-09  .100000000000D+01  .178700000000D+04  .000000000000D+00
     .240000000000D+01  .000000000000D+00  .651925802231D-08  .920000000000D+02
     .460806000000D+06  .400000000000D+01
 2 14  4 11 10  0  0.0  .489084515721D-03  .216004991671D-11  .000000000000D+00
     .740000000000D+02 -.442500000000D+02  .511128433408D-08 -.100291017039D+01
    -.215880572796D-05  .134387640283D-01  .954791903496D-05  .515358795357D+04
     .468000000000D+06  .264495611191D-06 -.848680274917D+00  .160187482834D-06
     .939314312680D+00  .182093750000D+03 -.244511531191D+01 -.829034532616D-08
    -.157506560780D-09  .100000000000D+01  .178700000000D+04  .000000000000D+00
     .240000000000D+01  .000000000000D+00 -.200234353542D-07  .740000000000D+02
     .460806000000D+06  .400000000000D+01
 3 14  4 11 10  0  0.0  .350314192474D-03  .488853402203D-11  .000000000000D+00
     .230000000000D+02 -.356250000000D+01  .554523098113D-08 -.829877915495D+00
     .130385160446D-06  .168547102949D-01  .375509262085D-05  .515377589989D+04
     .468000000000D+06 -.188127160072D-06 -.202320959887D+01  .249594449997D-06
     .937589751702D+00  .298875000000D+03  .137399295218D+01 -.900394647908D-08
     .168221292806D-09  .100000000000D+01  .178700000000D+04  .000000000000D+00
     .240000000000D+01  .000000000000D+00 -.465661287308D-08  .230000000000D+02
     .460806000000D+06  .400000000000D+01
 4 14  4 11 10  0  0.0  .658631324768D-05  .227373675443D-12  .000000000000D+00
     .179000000000D+03 -.554375000000D+02  .498627912711D-08  .238686228703D+01
    -.295601785183D-05  .105622695992D-01  .988692045212D-05  .515372416496D+04
     .468000000000D+06  .204890966415D-07 -.832616694170D+00 -.188127160072D-06
     .938345104583D+00  .177531250000D+03  .108726252423D+01 -.805640701026D-08
    -.186079179516D-09  .100000000000D+01  .178700000000D+04  .000000000000D+00
     .240000000000D+01  .000000000000D+00 -.605359673500D-08  .179000000000D+03
     .460806000000D+06  .400000000000D+01
 5 14  4 11 10  0  0.0 -.379526522011D-03  .216004991671D-11  .000000000000D+00
     .690000000000D+02  .622187500000D+02  .498985070445D-08  .131323751816D+01
     .348873436451D-05  .357781478669D-02  .865384936333D-05  .515357243538D+04
     .468000000000D+06  .391155481339D-07  .218392553475D+00  .800937414169D-07
     .947881042456D+00  .205343750000D+03  .330041251451D+00 -.831070331701D-08
     .219652006531D-09  .100000000000D+01  .178700000000D+04  .000000000000D+00
     .240000000000D+01  .000000000000D+00 -.102445483208D-07  .690000000000D+02
     .460806000000D+06  .400000000000D+01
 7 14  4 11 10  0  0.0  .334057956934D-03  .420641299570D-11  .000000000000D+00
     .610000000000D+02 -.397187500000D+02  .394552148966D-08 -.224891666667D+01
    -.212155282497D-05  .716705608647D-02  .102911144495D-04  .515364001846D+04
     .468000000000D+06 -.577419996262D-07  .234048336152D+01 -.372529029846D-07
     .973704429966D+00  .188687500000D+03 -.284149332390D+01 -.768496296670D-08
    -.209651589973D-09  .100000000000D+01  .178700000000D+04  .000000000000D+00
     .240000000000D+01  .000000000000D+00 -.107102096081D-07  .610000000000D+02
     .460806000000D+06  .400000000000D+01
